[{"OBJECT_NAME":"FENGYUN 3C","OBJECT_ID":"2013-052A","EPOCH":"2026-03-09T23:00:17.582976","MEAN_MOTION":14.15729116,"ECCENTRICITY":0.00138136,"INCLINATION":98.4893,"RA_OF_ASC_NODE":47.4396,"ARG_OF_PERICENTER":312.3692,"MEAN_ANOMALY":47.6312,"EPHEMERIS_TYPE":0,"CLASSIFICATION_TYPE":"U","NORAD_CAT_ID":39260,"ELEMENT_SET_NO":999,"REV_AT_EPOCH":64452,"BSTAR":0.00010509622,"MEAN_MOTION_DOT":1.65e-6,"MEAN_MOTION_DDOT":0},{"OBJECT_NAME":"FENGYUN 1C DEB","OBJECT_ID":"1999-025DRD","EPOCH":"2026-03-07T11:32:43.229760","MEAN_MOTION":14.13717708,"ECCENTRICITY":0.00571289,"INCLINATION":99.0764,"RA_OF_ASC_NODE":158.2674,"ARG_OF_PERICENTER":35.012,"MEAN_ANOMALY":25.7368,"EPHEMERIS_TYPE":0,"CLASSIFICATION_TYPE":"U","NORAD_CAT_ID":35245,"ELEMENT_SET_NO":999,"REV_AT_EPOCH":88974,"BSTAR":0.0019428187,"MEAN_MOTION_DOT":3.685e-5,"MEAN_MOTION_DDOT":0}]
